[{"OBJECT_NAME":"ONEWEB-0436","OBJECT_ID":"2022-012M","EPOCH":"2026-06-18T01:08:25.043712","MEAN_MOTION":13.17648826,"ECCENTRICITY":0.0001632,"INCLINATION":87.914,"RA_OF_ASC_NODE":5.6745,"ARG_OF_PERICENTER":90.3737,"MEAN_ANOMALY":269.7582,"EPHEMERIS_TYPE":0,"CLASSIFICATION_TYPE":"U","NORAD_CAT_ID":51633,"ELEMENT_SET_NO":999,"REV_AT_EPOCH":21379,"BSTAR":0.00019088,"MEAN_MOTION_DOT":8.7e-07,"MEAN_MOTION_DDOT":0.0},{"OBJECT_NAME":"ONEWEB-0438","OBJECT_ID":"2022-012N","EPOCH":"2026-06-18T02:17:25.001664","MEAN_MOTION":13.10294724,"ECCENTRICITY":0.0002015,"INCLINATION":87.8826,"RA_OF_ASC_NODE":36.1005,"ARG_OF_PERICENTER":81.4473,"MEAN_ANOMALY":278.6883,"EPHEMERIS_TYPE":0,"CLASSIFICATION_TYPE":"U","NORAD_CAT_ID":51634,"ELEMENT_SET_NO":999,"REV_AT_EPOCH":20946,"BSTAR":-0.018017000000000002,"MEAN_MOTION_DOT":-6.265e-05,"MEAN_MOTION_DDOT":0.0},{"OBJECT_NAME":"ONEWEB-0439","OBJECT_ID":"2022-012P","EPOCH":"2026-06-18T02:22:14.101248","MEAN_MOTION":13.10283188,"ECCENTRICITY":0.0002056,"INCLINATION":87.8813,"RA_OF_ASC_NODE":36.0879,"ARG_OF_PERICENTER":91.3266,"MEAN_ANOMALY":268.8097,"EPHEMERIS_TYPE":0,"CLASSIFICATION_TYPE":"U","NORAD_CAT_ID":51635,"ELEMENT_SET_NO":999,"REV_AT_EPOCH":20944,"BSTAR":-0.020361000000000004,"MEAN_MOTION_DOT":-7.08e-05,"MEAN_MOTION_DDOT":0.0},{"OBJECT_NAME":"ONEWEB-0442","OBJECT_ID":"2022-012Q","EPOCH":"2026-06-18T00:57:29.471616","MEAN_MOTION":13.17648978,"ECCENTRICITY":0.0002397,"INCLINATION":87.913,"RA_OF_ASC_NODE":5.7087,"ARG_OF_PERICENTER":81.6815,"MEAN_ANOMALY":278.4588,"EPHEMERIS_TYPE":0,"CLASSIFICATION_TYPE":"U","NORAD_CAT_ID":51636,"ELEMENT_SET_NO":999,"REV_AT_EPOCH":21378,"BSTAR":0.00010081,"MEAN_MOTION_DOT":5.2e-07,"MEAN_MOTION_DDOT":0.0},{"OBJECT_NAME":"ONEWEB-0443","OBJECT_ID":"2022-012R","EPOCH":"2026-06-18T06:53:28.050144","MEAN_MOTION":13.17648935,"ECCENTRICITY":0.0001739,"INCLINATION":87.9131,"RA_OF_ASC_NODE":5.6605,"ARG_OF_PERICENTER":77.2749,"MEAN_ANOMALY":282.8577,"EPHEMERIS_TYPE":0,"CLASSIFICATION_TYPE":"U","NORAD_CAT_ID":51637,"ELEMENT_SET_NO":999,"REV_AT_EPOCH":21386,"BSTAR":-0.00010769,"MEAN_MOTION_DOT":-2.9e-07,"MEAN_MOTION_DDOT":0.0},{"OBJECT_NAME":"ONEWEB-0444","OBJECT_ID":"2022-012S","EPOCH":"2026-06-18T02:07:47.901504","MEAN_MOTION":13.10323701,"ECCENTRICITY":0.0001678,"INCLINATION":87.8822,"RA_OF_ASC_NODE":36.0868,"ARG_OF_PERICENTER":78.4293,"MEAN_ANOMALY":281.7022,"EPHEMERIS_TYPE":0,"CLASSIFICATION_TYPE":"U","NORAD_CAT_ID":51638,"ELEMENT_SET_NO":999,"REV_AT_EPOCH":20945,"BSTAR":-0.010028,"MEAN_MOTION_DOT":-3.484e-05,"MEAN_MOTION_DDOT":0.0},{"OBJECT_NAME":"ONEWEB-0445","OBJECT_ID":"2022-012T","EPOCH":"2026-06-18T02:38:29.790528","MEAN_MOTION":13.10453833,"ECCENTRICITY":0.0002496,"INCLINATION":87.8883,"RA_OF_ASC_NODE":36.065,"ARG_OF_PERICENTER":76.9849,"MEAN_ANOMALY":283.1557,"EPHEMERIS_TYPE":0,"CLASSIFICATION_TYPE":"U","NORAD_CAT_ID":51639,"ELEMENT_SET_NO":999,"REV_AT_EPOCH":20946,"BSTAR":0.015365000000000002,"MEAN_MOTION_DOT":5.386e-05,"MEAN_MOTION_DDOT":0.0},{"OBJECT_NAME":"ONEWEB-0446","OBJECT_ID":"2022-012U","EPOCH":"2026-06-18T02:05:24.007488","MEAN_MOTION":13.10317712,"ECCENTRICITY":0.000198,"INCLINATION":87.883,"RA_OF_ASC_NODE":36.1047,"ARG_OF_PERICENTER":85.2137,"MEAN_ANOMALY":274.9216,"EPHEMERIS_TYPE":0,"CLASSIFICATION_TYPE":"U","NORAD_CAT_ID":51640,"ELEMENT_SET_NO":999,"REV_AT_EPOCH":20944,"BSTAR":-0.013600000000000001,"MEAN_MOTION_DOT":-4.729e-05,"MEAN_MOTION_DDOT":0.0},{"OBJECT_NAME":"ONEWEB-0448","OBJECT_ID":"2022-012V","EPOCH":"2026-06-18T02:12:35.287776","MEAN_MOTION":13.10319948,"ECCENTRICITY":0.0001615,"INCLINATION":87.8813,"RA_OF_ASC_NODE":36.0997,"ARG_OF_PERICENTER":80.2484,"MEAN_ANOMALY":279.8826,"EPHEMERIS_TYPE":0,"CLASSIFICATION_TYPE":"U","NORAD_CAT_ID":51641,"ELEMENT_SET_NO":999,"REV_AT_EPOCH":20941,"BSTAR":-0.011665000000000002,"MEAN_MOTION_DOT":-4.054e-05,"MEAN_MOTION_DDOT":0.0},{"OBJECT_NAME":"ONEWEB-0449","OBJECT_ID":"2022-012W","EPOCH":"2026-06-18T02:19:49.067616","MEAN_MOTION":13.10290692,"ECCENTRICITY":0.0001942,"INCLINATION":87.8818,"RA_OF_ASC_NODE":36.086,"ARG_OF_PERICENTER":73.7815,"MEAN_ANOMALY":286.3526,"EPHEMERIS_TYPE":0,"CLASSIFICATION_TYPE":"U","NORAD_CAT_ID":51642,"ELEMENT_SET_NO":999,"REV_AT_EPOCH":20942,"BSTAR":-0.019159000000000002,"MEAN_MOTION_DOT":-6.663e-05,"MEAN_MOTION_DDOT":0.0},{"OBJECT_NAME":"ONEWEB-0451","OBJECT_ID":"2022-012X","EPOCH":"2026-06-18T06:31:37.185024","MEAN_MOTION":13.17648761,"ECCENTRICITY":0.0002008,"INCLINATION":87.9142,"RA_OF_ASC_NODE":5.6273,"ARG_OF_PERICENTER":82.7148,"MEAN_ANOMALY":277.4212,"EPHEMERIS_TYPE":0,"CLASSIFICATION_TYPE":"U","NORAD_CAT_ID":51643,"ELEMENT_SET_NO":999,"REV_AT_EPOCH":21380,"BSTAR":-0.0001503,"MEAN_MOTION_DOT":-4.5e-07,"MEAN_MOTION_DDOT":0.0},{"OBJECT_NAME":"ONEWEB-0452","OBJECT_ID":"2022-012Y","EPOCH":"2026-06-18T06:29:10.327488","MEAN_MOTION":13.17649026,"ECCENTRICITY":0.0001885,"INCLINATION":87.9132,"RA_OF_ASC_NODE":5.6644,"ARG_OF_PERICENTER":78.5329,"MEAN_ANOMALY":281.6014,"EPHEMERIS_TYPE":0,"CLASSIFICATION_TYPE":"U","NORAD_CAT_ID":51644,"ELEMENT_SET_NO":999,"REV_AT_EPOCH":21381,"BSTAR":-5.7463e-05,"MEAN_MOTION_DOT":-9e-08,"MEAN_MOTION_DDOT":0.0},{"OBJECT_NAME":"ONEWEB-0456","OBJECT_ID":"2022-012AA","EPOCH":"2026-06-18T02:33:40.265856","MEAN_MOTION":13.1046516,"ECCENTRICITY":0.0001006,"INCLINATION":87.8828,"RA_OF_ASC_NODE":36.0676,"ARG_OF_PERICENTER":60.6474,"MEAN_ANOMALY":299.4754,"EPHEMERIS_TYPE":0,"CLASSIFICATION_TYPE":"U","NORAD_CAT_ID":51646,"ELEMENT_SET_NO":999,"REV_AT_EPOCH":20946,"BSTAR":0.019308000000000002,"MEAN_MOTION_DOT":6.767e-05,"MEAN_MOTION_DDOT":0.0},{"OBJECT_NAME":"ONEWEB-0457","OBJECT_ID":"2022-012AB","EPOCH":"2026-06-18T02:00:23.672448","MEAN_MOTION":13.10328228,"ECCENTRICITY":0.000221,"INCLINATION":87.8834,"RA_OF_ASC_NODE":36.093,"ARG_OF_PERICENTER":86.5709,"MEAN_ANOMALY":273.5671,"EPHEMERIS_TYPE":0,"CLASSIFICATION_TYPE":"U","NORAD_CAT_ID":51647,"ELEMENT_SET_NO":999,"REV_AT_EPOCH":20946,"BSTAR":-0.010502000000000001,"MEAN_MOTION_DOT":-3.65e-05,"MEAN_MOTION_DDOT":0.0},{"OBJECT_NAME":"ONEWEB-0458","OBJECT_ID":"2022-012AC","EPOCH":"2026-06-18T02:31:32.871648","MEAN_MOTION":13.10369977,"ECCENTRICITY":0.0001797,"INCLINATION":87.8835,"RA_OF_ASC_NODE":36.0765,"ARG_OF_PERICENTER":76.3764,"MEAN_ANOMALY":283.7563,"EPHEMERIS_TYPE":0,"CLASSIFICATION_TYPE":"U","NORAD_CAT_ID":51648,"ELEMENT_SET_NO":999,"REV_AT_EPOCH":20942,"BSTAR":-0.00060565,"MEAN_MOTION_DOT":-1.99e-06,"MEAN_MOTION_DDOT":0.0},{"OBJECT_NAME":"ONEWEB-0461","OBJECT_ID":"2022-012AD","EPOCH":"2026-06-18T07:00:45.775872","MEAN_MOTION":13.17648752,"ECCENTRICITY":0.0001957,"INCLINATION":87.9141,"RA_OF_ASC_NODE":5.6373,"ARG_OF_PERICENTER":90.2332,"MEAN_ANOMALY":269.9024,"EPHEMERIS_TYPE":0,"CLASSIFICATION_TYPE":"U","NORAD_CAT_ID":51649,"ELEMENT_SET_NO":999,"REV_AT_EPOCH":21403,"BSTAR":8.336300000000001e-05,"MEAN_MOTION_DOT":4.5e-07,"MEAN_MOTION_DDOT":0.0}]