ONEWEB-0436             
1 51633U 22012M   26169.04751208  .00000087  00000+0  19088-3 0  9999
2 51633  87.9140   5.6745 0001632  90.3737 269.7582 13.17648826213794
ONEWEB-0438             
1 51634U 22012N   26169.09542826 -.00006265  00000+0 -18017-1 0  9994
2 51634  87.8826  36.1005 0002015  81.4473 278.6883 13.10294724209466
ONEWEB-0439             
1 51635U 22012P   26169.09877432 -.00007080  00000+0 -20361-1 0  9990
2 51635  87.8813  36.0879 0002056  91.3266 268.8097 13.10283188209444
ONEWEB-0442             
1 51636U 22012Q   26169.03992444  .00000052  00000+0  10081-3 0  9996
2 51636  87.9130   5.7087 0002397  81.6815 278.4588 13.17648978213785
ONEWEB-0443             
1 51637U 22012R   26169.28713021 -.00000029  00000+0 -10769-3 0  9995
2 51637  87.9131   5.6605 0001739  77.2749 282.8577 13.17648935213867
ONEWEB-0444             
1 51638U 22012S   26169.08874886 -.00003484  00000+0 -10028-1 0  9995
2 51638  87.8822  36.0868 0001678  78.4293 281.7022 13.10323701209459
ONEWEB-0445             
1 51639U 22012T   26169.11006702  .00005386  00000+0  15365-1 0  9994
2 51639  87.8883  36.0650 0002496  76.9849 283.1557 13.10453833209465
ONEWEB-0446             
1 51640U 22012U   26169.08708342 -.00004729  00000+0 -13600-1 0  9993
2 51640  87.8830  36.1047 0001980  85.2137 274.9216 13.10317712209443
ONEWEB-0448             
1 51641U 22012V   26169.09207509 -.00004054  00000+0 -11665-1 0  9994
2 51641  87.8813  36.0997 0001615  80.2484 279.8826 13.10319948209414
ONEWEB-0449             
1 51642U 22012W   26169.09709569 -.00006663  00000+0 -19159-1 0  9992
2 51642  87.8818  36.0860 0001942  73.7815 286.3526 13.10290692209422
ONEWEB-0451             
1 51643U 22012X   26169.27195816 -.00000045  00000+0 -15030-3 0  9991
2 51643  87.9142   5.6273 0002008  82.7148 277.4212 13.17648761213808
ONEWEB-0452             
1 51644U 22012Y   26169.27025842 -.00000009  00000+0 -57463-4 0  9990
2 51644  87.9132   5.6644 0001885  78.5329 281.6014 13.17649026213819
ONEWEB-0456             
1 51646U 22012AA  26169.10671604  .00006767  00000+0  19308-1 0  9995
2 51646  87.8828  36.0676 0001006  60.6474 299.4754 13.10465160209465
ONEWEB-0457             
1 51647U 22012AB  26169.08360732 -.00003650  00000+0 -10502-1 0  9997
2 51647  87.8834  36.0930 0002210  86.5709 273.5671 13.10328228209466
ONEWEB-0458             
1 51648U 22012AC  26169.10524157 -.00000199  00000+0 -60565-3 0  9995
2 51648  87.8835  36.0765 0001797  76.3764 283.7563 13.10369977209426
ONEWEB-0461             
1 51649U 22012AD  26169.29219648  .00000045  00000+0  83363-4 0  9992
2 51649  87.9141   5.6373 0001957  90.2332 269.9024 13.17648752214038
